[{"OBJECT_NAME":"STARLINK-35587","OBJECT_ID":"2025-240N","EPOCH":"2026-03-09T23:47:42.279648","MEAN_MOTION":15.3021366,"ECCENTRICITY":0.00015423,"INCLINATION":53.1598,"RA_OF_ASC_NODE":61.4798,"ARG_OF_PERICENTER":97.6105,"MEAN_ANOMALY":262.5071,"EPHEMERIS_TYPE":0,"CLASSIFICATION_TYPE":"U","NORAD_CAT_ID":66158,"ELEMENT_SET_NO":999,"REV_AT_EPOCH":2203,"BSTAR":0.0011147196,"MEAN_MOTION_DOT":0.00032816,"MEAN_MOTION_DDOT":0},{"OBJECT_NAME":"PUCP-SAT 1","OBJECT_ID":"2013-066AC","EPOCH":"2026-03-09T22:02:13.763904","MEAN_MOTION":15.29426022,"ECCENTRICITY":0.00136836,"INCLINATION":97.5787,"RA_OF_ASC_NODE":61.0032,"ARG_OF_PERICENTER":300.1183,"MEAN_ANOMALY":59.87,"EPHEMERIS_TYPE":0,"CLASSIFICATION_TYPE":"U","NORAD_CAT_ID":39442,"ELEMENT_SET_NO":999,"REV_AT_EPOCH":66907,"BSTAR":0.00088755185,"MEAN_MOTION_DOT":0.00025373,"MEAN_MOTION_DDOT":0}]
